[{"OBJECT_NAME":"STARLINK-4454","OBJECT_ID":"2022-099AL","EPOCH":"2026-03-09T21:07:03.605376","MEAN_MOTION":15.05646203,"ECCENTRICITY":7.42e-5,"INCLINATION":97.604,"RA_OF_ASC_NODE":191.4609,"ARG_OF_PERICENTER":230.7408,"MEAN_ANOMALY":129.3753,"EPHEMERIS_TYPE":0,"CLASSIFICATION_TYPE":"U","NORAD_CAT_ID":53499,"ELEMENT_SET_NO":999,"REV_AT_EPOCH":19608,"BSTAR":3.8063679e-5,"MEAN_MOTION_DOT":4.88e-6,"MEAN_MOTION_DDOT":0},{"OBJECT_NAME":"CENTAURI-6","OBJECT_ID":"2024-066K","EPOCH":"2026-03-09T07:44:58.674048","MEAN_MOTION":15.04786474,"ECCENTRICITY":0.00025343,"INCLINATION":45.6063,"RA_OF_ASC_NODE":55.7055,"ARG_OF_PERICENTER":285.4438,"MEAN_ANOMALY":74.6166,"EPHEMERIS_TYPE":0,"CLASSIFICATION_TYPE":"U","NORAD_CAT_ID":59451,"ELEMENT_SET_NO":999,"REV_AT_EPOCH":10507,"BSTAR":0.00052686271,"MEAN_MOTION_DOT":7.311e-5,"MEAN_MOTION_DDOT":0}]
