STARLINK-4454           
1 53499U 22099AL  26068.87990284  .00000488  00000+0  38064-4 0  9995
2 53499  97.6040 191.4609 0000742 230.7408 129.3753 15.05646203196081
CENTAURI-6              
1 59451U 24066K   26068.32290132  .00007311  00000+0  52686-3 0  9997
2 59451  45.6063  55.7055 0002534 285.4438  74.6166 15.04786474105074
